OBJECT_NAME,OBJECT_ID,EPOCH,MEAN_MOTION,ECCENTRICITY,INCLINATION,RA_OF_ASC_NODE,ARG_OF_PERICENTER,MEAN_ANOMALY,EPHEMERIS_TYPE,CLASSIFICATION_TYPE,NORAD_CAT_ID,ELEMENT_SET_NO,REV_AT_EPOCH,BSTAR,MEAN_MOTION_DOT,MEAN_MOTION_DDOT
STARLINK-6273,2023-061X,2026-07-15T00:31:36.179328,15.27575031,.00008742,43.0024,188.3437,277.9899,82.0853,0,U,56395,999,17705,-.28379332E-4,-.1043E-4,0
STARLINK-6302,2023-061Y,2026-07-15T16:42:33.396768,15.27574502,.00020989,43.0036,183.9516,265.1496,94.9116,0,U,56396,999,17158,.37503764E-4,.77E-5,0
STARLINK-6271,2023-061Z,2026-07-15T16:02:05.194752,15.27573292,.00013899,43.0031,184.5955,285.3719,74.6980,0,U,56397,999,17644,-.7995945E-5,-.482E-5,0
STARLINK-6288,2023-061AA,2026-07-15T01:06:32.786784,15.27575927,.00014007,43.0015,187.6691,259.8412,100.2282,0,U,56398,999,17635,.588808E-5,-.1E-5,0
STARLINK-6277,2023-061AB,2026-07-15T16:37:00.761952,15.27576293,.00015081,43.0030,183.9252,276.1556,83.9124,0,U,56399,999,17645,-.14157917E-4,-.652E-5,0
STARLINK-6267,2023-061AC,2026-07-15T07:28:45.153408,15.27566310,.00010678,42.9990,186.2262,297.5672,62.5071,0,U,56400,999,17639,.4471014E-4,.968E-5,0
STARLINK-6287,2023-061AG,2026-07-15T15:51:00.372672,15.27413481,.00013688,43.0001,184.5281,215.8441,144.2319,0,U,56404,999,17644,.11413136E-2,.31118E-3,0
STARLINK-6285,2023-061AH,2026-07-15T01:15:48.040704,15.27585374,.00014883,43.0015,187.7155,260.8464,99.2219,0,U,56405,999,17635,.47803335E-4,.1054E-4,0
STARLINK-6283,2023-061AJ,2026-07-15T22:27:56.542176,15.27574645,.00005884,43.0010,183.1530,241.6903,118.3890,0,U,56406,999,17648,.14250665E-4,.13E-5,0
STARLINK-6282,2023-061AK,2026-07-15T00:03:50.528160,15.27575216,.0001486,43.0008,188.1958,283.7178,76.3508,0,U,56407,999,17634,-.27070067E-4,-.1007E-4,0
STARLINK-6289,2023-061AL,2026-07-15T08:36:58.366368,15.27584058,.00022121,43.0038,185.7000,285.3203,74.7405,0,U,56408,999,17640,-.19999733E-3,-.5763E-4,0
STARLINK-6241,2023-061AM,2026-07-15T15:54:39.965184,15.27574767,.00010979,43.0008,184.5525,260.7813,99.2915,0,U,56409,999,17644,.1453148E-4,.138E-5,0
STARLINK-6281,2023-061AN,2026-07-15T08:27:43.478784,15.27575087,.00011054,43.0021,185.6598,274.9109,85.1616,0,U,56410,999,17640,-.11199771E-4,-.57E-5,0
STARLINK-6279,2023-061AP,2026-07-15T08:09:26.166816,15.27576175,.00002343,43.0006,186.4246,290.6088,69.4738,0,U,56411,999,17639,.17228568E-4,.212E-5,0
STARLINK-6278,2023-061AQ,2026-07-15T16:38:51.241632,15.27577598,.00019304,43.0040,183.9255,278.2030,81.8603,0,U,56412,999,17645,.9716802E-5,.5E-7,0
STARLINK-6258,2023-061AR,2026-07-15T16:16:51.809952,15.27574246,.00010001,43.0019,184.6654,267.8873,92.1864,0,U,56413,999,17644,.13027151E-4,.96E-6,0
STARLINK-5136,2023-061AS,2026-07-15T10:53:40.996608,15.27578799,.000111,43.0016,185.5575,280.7340,79.3386,0,U,56414,999,17641,.29178456E-4,.541E-5,0
STARLINK-6260,2023-061AU,2026-07-15T23:00:33.062400,15.27574150,.00010597,43.0016,175.4287,265.9015,94.1715,0,U,56416,999,17657,.17062966E-4,.207E-5,0
STARLINK-6261,2023-061AV,2026-07-15T07:25:01.980480,15.27568028,.00014987,43.0022,186.1946,264.2353,95.8328,0,U,56417,999,17639,.12433023E-4,.8E-6,0
STARLINK-5356,2023-061AW,2026-07-15T15:57:39.690144,15.27577081,.00010835,43.0019,176.6592,270.8530,89.2198,0,U,56418,999,17653,-.12561941E-4,-.608E-5,0
STARLINK-5350,2023-061AX,2026-07-15T15:41:42.840384,15.27573620,.00014331,43.0004,184.4813,292.1248,67.9451,0,U,56419,999,17644,-.16787145E-4,-.724E-5,0
STARLINK-6272,2023-061AY,2026-07-15T22:25:23.534688,15.27574745,.0001633,43.0028,175.2444,279.7165,80.3502,0,U,56420,999,17657,.26273208E-4,.461E-5,0
STARLINK-6270,2023-061AZ,2026-07-15T00:50:32.751456,15.27571997,.00015516,43.0035,183.9457,270.2650,89.8024,0,U,56421,999,17639,-.30214311E-4,-.1093E-4,0
STARLINK-6236,2023-061BA,2026-07-15T00:42:00.299232,15.27575536,.00011901,43.0001,180.4870,239.5612,120.5122,0,U,56422,999,17643,.17069884E-4,.208E-5,0
STARLINK-6239,2023-061BB,2026-07-15T08:23:32.271648,15.27575916,.00014047,43.0034,178.5976,269.4206,90.6484,0,U,56423,999,17648,.13152563E-4,.1E-5,0
STARLINK-6242,2023-061BC,2026-07-15T10:18:03.318048,15.27573885,.00008356,42.9996,178.3356,327.6950,32.3850,0,U,56424,999,17649,.27837885E-4,.504E-5,0
STARLINK-6224,2023-061BD,2026-07-15T00:47:33.549216,15.27575394,.00013825,43.0018,180.5174,267.2485,92.8209,0,U,56425,999,17643,.9500176E-5,-.1E-7,0
STARLINK-5352,2023-061BE,2026-07-15T15:17:09.700512,15.27584093,.00007808,42.9985,177.2980,5.1192,354.9667,0,U,56426,999,17652,.2712299E-3,.721E-4,0
STARLINK-5724,2023-061BF,2026-07-15T15:20:52.039680,15.27566749,.00011022,43.0012,177.3171,271.6149,88.4577,0,U,56427,999,17652,.21875157E-4,.34E-5,0
STARLINK-6238,2023-061BG,2026-07-15T07:15:17.216640,15.27573351,.00012905,43.0020,179.0937,263.8455,96.2250,0,U,56428,999,17647,.12274601E-4,.76E-6,0
